{"fetched_at":"2026-07-06T08:46:58.808Z","source":"https://celestrak.org/NORAD/elements/gp.php?NAME=FIREFLY&FORMAT=JSON","constellation":"pixxel","records":[{"OBJECT_NAME":"FIREFLY-1","OBJECT_ID":"2025-009CW","EPOCH":"2026-07-05T07:49:57.038304","CLASSIFICATION_TYPE":"U","MEAN_MOTION":14.92725953,"ECCENTRICITY":0.0002218,"INCLINATION":97.7065,"RA_OF_ASC_NODE":264.0811,"ARG_OF_PERICENTER":275.9246,"MEAN_ANOMALY":84.1721,"EPHEMERIS_TYPE":0,"NORAD_CAT_ID":62701,"ELEMENT_SET_NO":999,"REV_AT_EPOCH":8002,"BSTAR":0.0001735,"MEAN_MOTION_DOT":0.00001735,"MEAN_MOTION_DDOT":0},{"OBJECT_NAME":"FIREFLY-2","OBJECT_ID":"2025-009CZ","EPOCH":"2026-07-05T08:54:37.950912","CLASSIFICATION_TYPE":"U","MEAN_MOTION":14.92721948,"ECCENTRICITY":0.0007256,"INCLINATION":97.7022,"RA_OF_ASC_NODE":263.9003,"ARG_OF_PERICENTER":33.825,"MEAN_ANOMALY":326.3431,"EPHEMERIS_TYPE":0,"NORAD_CAT_ID":62704,"ELEMENT_SET_NO":999,"REV_AT_EPOCH":8003,"BSTAR":0.00020688,"MEAN_MOTION_DOT":0.0000208,"MEAN_MOTION_DDOT":0}]}
