FIREFLY-1               
1 62701U 25009CW  26186.32635461  .00001735  00000+0  17350-3 0  9999
2 62701  97.7065 264.0811 0002218 275.9246  84.1721 14.92725953 80022
FIREFLY-2               
1 62704U 25009CZ  26186.37127259  .00002080  00000+0  20688-3 0  9990
2 62704  97.7022 263.9003 0007256  33.8250 326.3431 14.92721948 80032
